NORAD_CAT_ID,OBJECT_NAME,OBJECT_TYPE,EPOCH,MEAN_MOTION,ECCENTRICITY,INCLINATION,RA_OF_ASC_NODE,ARG_OF_PERICENTER,MEAN_ANOMALY,BSTAR,MEAN_MOTION_DOT,MEAN_MOTION_DDOT,TLE_LINE0,TLE_LINE1,TLE_LINE2,SEMIMAJOR_AXIS,PERIOD,APOGEE,PERIGEE,DECAYED
55951.0,STARLINK-5908,PAYLOAD,2023-11-19 12:09:58,14.98321005,0.0002446,70.0017,245.1934,279.7998,80.2885,-6.3698e-05,-8.53e-06,0.0,0 STARLINK-5908,1 55951U 23037AP  23323.50693156 -.00000853  00000-0 -63698-4 0  9992,2 55951  70.0017 245.1934 0002446 279.7998  80.2885 14.98321005 37988,6950.221,96.108,573.786,570.386,0.0
55951.0,STARLINK-5908,PAYLOAD,2023-11-19 20:10:39,14.98319575,0.0002628,70.0022,244.3503,279.3108,80.7754,3.0699e-05,2.73e-06,0.0,0 STARLINK-5908,1 55951U 23037AP  23323.84072985  .00000273  00000-0  30699-4 0  9999,2 55951  70.0022 244.3503 0002628 279.3108  80.7754 14.98319575 38371,6950.225,96.108,573.917,570.264,0.0
55951.0,STARLINK-5908,PAYLOAD,2023-11-19 21:46:46,14.98324547,0.0002763,70.0006,244.1821,278.3028,81.7818,2.2166e-05,1.71e-06,0.0,0 STARLINK-5908,1 55951U 23037AP  23323.90748711  .00000171  00000-0  22166-4 0  9990,2 55951  70.0006 244.1821 0002763 278.3028  81.7818 14.98324547 38045,6950.21,96.107,573.995,570.154,0.0
55951.0,STARLINK-5908,PAYLOAD,2023-11-20 00:58:52,14.98455871,0.0002788,70.0016,243.8449,267.884,92.2,0.0015416,0.00018409,0.0,0 STARLINK-5908,1 55951U 23037AP  23324.04089099  .00018409  00000-0  15416-2 0  9994,2 55951  70.0016 243.8449 0002788 267.8840  92.2000 14.98455871 38405,6949.804,96.099,573.606,569.731,0.0
55951.0,STARLINK-5908,PAYLOAD,2023-11-20 04:11:18,14.98330494,0.0002724,70.0002,243.5076,275.9567,84.1282,0.00010094,1.112e-05,0.0,0 STARLINK-5908,1 55951U 23037AP  23324.17452153  .00001112  00000-0  10094-3 0  9994,2 55951  70.0002 243.5076 0002724 275.9567  84.1282 14.98330494 38426,6950.191,96.107,573.95,570.163,0.0
55951.0,STARLINK-5908,PAYLOAD,2023-11-20 21:48:46,14.98334353,0.0002891,69.9999,241.6577,275.1318,84.9511,0.00025263,2.923e-05,0.0,0 STARLINK-5908,1 55951U 23037AP  23324.90887335  .00002923  00000-0  25263-3 0  9994,2 55951  69.9999 241.6577 0002891 275.1318  84.9511 14.98334353 38199,6950.179,96.107,574.054,570.035,0.0
55951.0,STARLINK-5908,PAYLOAD,2023-11-21 02:37:10,14.98338122,0.0002712,70.0002,241.1522,272.4328,87.6521,0.00025217,2.918e-05,0.0,0 STARLINK-5908,1 55951U 23037AP  23325.10914957  .00002918  00000-0  25217-3 0  9991,2 55951  70.0002 241.1522 0002712 272.4328  87.6521 14.98338122 38565,6950.168,96.106,573.918,570.148,0.0
55951.0,STARLINK-5908,PAYLOAD,2023-11-21 04:13:18,14.98349381,0.0002821,69.9998,240.9839,273.9161,86.1675,0.00021264,2.446e-05,0.0,0 STARLINK-5908,1 55951U 23037AP  23325.17590335  .00002446  00000-0  21264-3 0  9992,2 55951  69.9998 240.9839 0002821 273.9161  86.1675 14.98349381 38570,6950.133,96.106,573.959,570.037,0.0
55951.0,STARLINK-5908,PAYLOAD,2023-11-21 20:14:39,14.98331437,0.0002887,70.0001,239.3011,269.8437,90.2391,1.6066e-06,-7.4e-07,0.0,0 STARLINK-5908,1 55951U 23037AP  23325.84351784 -.00000074  00000-0  16066-5 0  9991,2 55951  70.0001 239.3011 0002887 269.8437  90.2391 14.98331437 38332,6950.188,96.107,574.06,570.047,0.0
55951.0,STARLINK-5908,PAYLOAD,2023-11-22 02:39:11,14.98337198,0.0002747,69.9998,238.6284,266.402,93.6825,-2.0799e-06,-1.18e-06,0.0,0 STARLINK-5908,1 55951U 23037AP  23326.11055356 -.00000118  00000-0 -20799-5 0  9996,2 55951  69.9998 238.6284 0002747 266.4020  93.6825 14.98337198 38715,6950.171,96.107,573.945,570.126,0.0
55951.0,STARLINK-5908,PAYLOAD,2023-11-22 04:15:19,14.98336229,0.0002778,70.0004,238.4612,270.1897,89.8944,3.8135e-05,3.62e-06,0.0,0 STARLINK-5908,1 55951U 23037AP  23326.17731271  .00000362  00000-0  38135-4 0  9990,2 55951  70.0004 238.4612 0002778 270.1897  89.8944 14.98336229 38383,6950.174,96.107,573.969,570.108,0.0
55951.0,STARLINK-5908,PAYLOAD,2023-11-22 20:16:40,14.98341564,0.000253,70.0003,236.7781,261.4902,98.597,-9.0818e-05,-1.177e-05,0.0,0 STARLINK-5908,1 55951U 23037AP  23326.84490829 -.00001177  00000-0 -90818-4 0  9998,2 55951  70.0003 236.7781 0002530 261.4902  98.5970 14.98341564 38481,6950.157,96.106,573.781,570.264,0.0
55951.0,STARLINK-5908,PAYLOAD,2023-11-23 02:41:11,14.98341792,0.0002491,70.0005,236.105,258.1862,101.9018,-3.0069e-05,-4.52e-06,0.0,0 STARLINK-5908,1 55951U 23037AP  23327.11194436 -.00000452  00000-0 -30069-4 0  9991,2 55951  70.0005 236.1050 0002491 258.1862 101.9018 14.98341792 38867,6950.156,96.106,573.753,570.29,0.0
55951.0,STARLINK-5908,PAYLOAD,2023-11-23 04:17:19,14.98342472,0.0002581,70.0006,235.9366,263.5724,96.5141,-1.2051e-05,-2.37e-06,0.0,0 STARLINK-5908,1 55951U 23037AP  23327.17870291 -.00000237  00000-0 -12051-4 0  9999,2 55951  70.0006 235.9366 0002581 263.5724  96.5141 14.98342472 38538,6950.154,96.106,573.813,570.225,0.0
55951.0,STARLINK-5908,PAYLOAD,2023-11-23 20:18:42,14.98318455,0.0002799,70.0003,234.2524,272.9212,87.1627,-0.00013024,-1.646e-05,0.0,0 STARLINK-5908,1 55951U 23037AP  23327.84632165 -.00001646  00000-0 -13024-3 0  9994,2 55951  70.0003 234.2524 0002799 272.9212  87.1627 14.98318455 38977,6950.229,96.108,574.039,570.148,0.0
55951.0,STARLINK-5908,PAYLOAD,2023-11-23 21:54:50,14.9831896,0.0002703,70.0001,234.0839,272.4118,87.6732,-0.00012589,-1.594e-05,0.0,0 STARLINK-5908,1 55951U 23037AP  23327.91308167 -.00001594  00000-0 -12589-3 0  9991,2 55951  70.0001 234.0839 0002703 272.4118  87.6732 14.98318960 38644,6950.227,96.108,573.971,570.213,0.0
55951.0,STARLINK-5908,PAYLOAD,2023-11-24 04:19:22,14.98319654,0.0002494,69.9998,233.4091,262.3297,97.7579,-8.0693e-05,-1.055e-05,0.0,0 STARLINK-5908,1 55951U 23037AP  23328.18012101 -.00001055  00000-0 -80693-4 0  9995,2 55951  69.9998 233.4091 0002494 262.3297  97.7579 14.98319654 38688,6950.225,96.108,573.823,570.356,0.0
55951.0,STARLINK-5908,PAYLOAD,2023-11-24 20:20:42,14.98329328,0.0002772,69.9999,231.7271,271.5645,88.5196,2.0042e-06,-6.9e-07,0.0,0 STARLINK-5908,1 55951U 23037AP  23328.84771405 -.00000069  00000-0  20042-5 0  9993,2 55951  69.9999 231.7271 0002772 271.5645  88.5196 14.98329328 39120,6950.195,96.107,573.987,570.133,0.0
55951.0,STARLINK-5908,PAYLOAD,2023-11-24 21:56:50,14.98330252,0.0002686,69.9999,231.5588,269.3354,90.7497,-9.546e-06,-2.07e-06,0.0,0 STARLINK-5908,1 55951U 23037AP  23328.91447393 -.00000207  00000-0 -95460-5 0  9998,2 55951  69.9999 231.5588 0002686 269.3354  90.7497 14.98330252 38794,6950.192,96.107,573.924,570.19,0.0
55951.0,STARLINK-5908,PAYLOAD,2023-11-25 02:45:14,14.98338287,0.0002642,69.9999,231.0549,254.7305,105.3562,6.9529e-05,7.37e-06,0.0,0 STARLINK-5908,1 55951U 23037AP  23329.11474551  .00000737  00000-0  69529-4 0  9999,2 55951  69.9999 231.0549 0002642 254.7305 105.3562 14.98338287 39166,6950.167,96.106,573.868,570.196,0.0
55951.0,STARLINK-5908,PAYLOAD,2023-11-25 20:22:42,14.98330822,0.0002399,70.0007,229.2031,263.2184,96.8702,0.00021718,2.499e-05,0.0,0 STARLINK-5908,1 55951U 23037AP  23329.84910520  .00002499  00000-0  21718-3 0  9994,2 55951  70.0007 229.2031 0002399 263.2184  96.8702 14.98330822 38934,6950.19,96.107,573.723,570.388,0.0
55951.0,STARLINK-5908,PAYLOAD,2023-11-26 02:47:13,14.98349358,0.0002631,69.9997,228.5283,274.9992,85.0866,0.00039241,4.595e-05,0.0,0 STARLINK-5908,1 55951U 23037AP  23330.11612855  .00004595  00000-0  39241-3 0  9995,2 55951  69.9997 228.5283 0002631 274.9992  85.0866 14.98349358 39313,6950.133,96.106,573.827,570.169,0.0
55951.0,STARLINK-5908,PAYLOAD,2023-11-26 18:48:37,14.98321748,0.0002799,70.0004,226.8476,259.6412,100.4431,-0.00019646,-2.436e-05,0.0,0 STARLINK-5908,1 55951U 23037AP  23330.78376174 -.00002436  00000-0 -19646-3 0  9990,2 55951  70.0004 226.8476 0002799 259.6412 100.4431 14.98321748 39416,6950.218,96.108,574.029,570.138,0.0
55951.0,STARLINK-5908,PAYLOAD,2023-11-26 22:00:53,14.98321323,0.0002995,69.999,226.509,267.9598,92.1218,-0.000226,-2.788e-05,0.0,0 STARLINK-5908,1 55951U 23037AP  23330.91728331 -.00002788  00000-0 -22600-3 0  9995,2 55951  69.9990 226.5090 0002995 267.9598  92.1218 14.98321323 39094,6950.22,96.108,574.166,570.003,0.0
55951.0,STARLINK-5908,PAYLOAD,2023-11-27 02:49:17,14.98319287,0.0002856,70.0005,226.0053,257.561,102.523,-0.00019661,-2.437e-05,0.0,0 STARLINK-5908,1 55951U 23037AP  23331.11756339 -.00002437  00000-0 -19661-3 0  9991,2 55951  70.0005 226.0053 0002856 257.5610 102.5230 14.98319287 39124,6950.226,96.108,574.076,570.106,0.0
55951.0,STARLINK-5908,PAYLOAD,2023-11-27 18:50:37,14.98334074,0.0002529,70.0009,224.3208,257.6858,102.4018,-8.9717e-05,-1.163e-05,0.0,0 STARLINK-5908,1 55951U 23037AP  23331.78515372 -.00001163  00000-0 -89717-4 0  9999,2 55951  70.0009 224.3208 0002529 257.6858 102.4018 14.98334074 39565,6950.18,96.107,573.803,570.288,0.0
55951.0,STARLINK-5908,PAYLOAD,2023-11-27 22:02:53,14.98316011,0.0002573,70.0,223.9825,267.865,92.2214,0.00022717,2.618e-05,0.0,0 STARLINK-5908,1 55951U 23037AP  23331.91867536  .00002618  00000-0  22717-3 0  9996,2 55951  70.0000 223.9825 0002573 267.8650  92.2214 14.98316011 39248,6950.236,96.108,573.889,570.313,0.0
55951.0,STARLINK-5908,PAYLOAD,2023-11-28 02:51:16,14.98343823,0.0002716,69.9993,223.4803,260.8432,99.242,9.7274e-06,2.3e-07,0.0,0 STARLINK-5908,1 55951U 23037AP  23332.11894327  .00000023  00000-0  97274-5 0  9997,2 55951  69.9993 223.4803 0002716 260.8432  99.2420 14.98343823 39615,6950.15,96.106,573.903,570.127,0.0
55951.0,STARLINK-5908,PAYLOAD,2023-11-28 20:28:46,14.98322992,0.0002561,70.0003,221.6271,253.4293,106.6584,0.00019069,2.183e-05,0.0,0 STARLINK-5908,1 55951U 23037AP  23332.85331071  .00002183  00000-0  19069-3 0  9993,2 55951  70.0003 221.6271 0002561 253.4293 106.6584 14.98322992 39720,6950.215,96.107,573.86,570.3,0.0
55951.0,STARLINK-5908,PAYLOAD,2023-11-28 22:04:54,14.98322961,0.0002886,69.9999,221.4599,256.1939,103.8899,0.00017261,1.967e-05,0.0,0 STARLINK-5908,1 55951U 23037AP  23332.92007111  .00001967  00000-0  17261-3 0  9997,2 55951  69.9999 221.4599 0002886 256.1939 103.8899 14.98322961 39396,6950.215,96.107,574.085,570.074,0.0
